NORAD_CAT_ID,OBJECT_NAME,OBJECT_TYPE,EPOCH,MEAN_MOTION,ECCENTRICITY,INCLINATION,RA_OF_ASC_NODE,ARG_OF_PERICENTER,MEAN_ANOMALY,BSTAR,MEAN_MOTION_DOT,MEAN_MOTION_DDOT,TLE_LINE0,TLE_LINE1,TLE_LINE2,SEMIMAJOR_AXIS,PERIOD,APOGEE,PERIGEE,DECAYED
53539.0,STARLINK-4123,PAYLOAD,2024-03-14 07:54:12,15.0883157,0.0001498,53.2158,90.3873,84.485,275.6313,0.00025027,3.696e-05,0.0,0 STARLINK-4123,1 53539U 22101N   24074.32931603  .00003696  00000-0  25027-3 0  9998,2 53539  53.2158  90.3873 0001498  84.4850 275.6313 15.08831570 86663,6917.906,95.438,540.807,538.735,0.0
53539.0,STARLINK-4123,PAYLOAD,2024-03-15 04:34:14,15.08833292,0.0001506,53.2161,86.5223,89.8347,270.2818,0.00042267,6.444e-05,0.0,0 STARLINK-4123,1 53539U 22101N   24075.19044407  .00006444  00000-0  42267-3 0  9990,2 53539  53.2161  86.5223 0001506  89.8347 270.2818 15.08833292 86791,6917.901,95.438,540.808,538.724,0.0
53539.0,STARLINK-4123,PAYLOAD,2024-03-15 07:45:00,15.08834304,0.0001482,53.2158,85.9276,88.986,271.1302,0.00040166,6.109e-05,0.0,0 STARLINK-4123,1 53539U 22101N   24075.32292452  .00006109  00000-0  40166-3 0  9994,2 53539  53.2158  85.9276 0001482  88.9860 271.1302 15.08834304 86817,6917.898,95.438,540.788,538.738,0.0
53539.0,STARLINK-4123,PAYLOAD,2024-03-16 06:00:24,15.08836136,0.0001557,53.2165,81.7655,100.4295,259.6873,0.00020095,2.911e-05,0.0,0 STARLINK-4123,1 53539U 22101N   24076.25028771  .00002911  00000-0  20095-3 0  9994,2 53539  53.2165  81.7655 0001557 100.4295 259.6873 15.08836136 86959,6917.892,95.438,540.834,538.68,0.0
53539.0,STARLINK-4123,PAYLOAD,2024-03-17 09:01:58,15.08842826,0.0001453,53.2159,76.7104,89.7873,270.3285,0.0001917,2.764e-05,0.0,0 STARLINK-4123,1 53539U 22101N   24077.37636747  .00002764  00000-0  19170-3 0  9994,2 53539  53.2159  76.7104 0001453  89.7873 270.3285 15.08842826 87121,6917.872,95.437,540.742,538.732,0.0
53539.0,STARLINK-4123,PAYLOAD,2024-03-18 07:17:22,15.08841324,0.0001486,53.2166,72.5478,84.1976,275.9186,0.00011767,1.585e-05,0.0,0 STARLINK-4123,1 53539U 22101N   24078.30372987  .00001585  00000-0  11767-3 0  9995,2 53539  53.2166  72.5478 0001486  84.1976 275.9186 15.08841324 87264,6917.876,95.437,540.769,538.713,0.0
53539.0,STARLINK-4123,PAYLOAD,2024-03-19 08:43:32,15.08849169,0.0001565,53.2167,67.7894,83.1723,276.9447,0.00019577,2.83e-05,0.0,0 STARLINK-4123,1 53539U 22101N   24079.36356664  .00002830  00000-0  19577-3 0  9997,2 53539  53.2167  67.7894 0001565  83.1723 276.9447 15.08849169 87424,6917.852,95.437,540.8,538.635,0.0
53539.0,STARLINK-4123,PAYLOAD,2024-03-20 05:23:32,15.08846172,0.0001412,53.2167,63.9199,108.3615,251.7531,0.00015025,2.104e-05,0.0,0 STARLINK-4123,1 53539U 22101N   24080.22468471  .00002104  00000-0  15025-3 0  9992,2 53539  53.2167  63.9199 0001412 108.3615 251.7531 15.08846172 87551,6917.862,95.437,540.703,538.75,0.0
53539.0,STARLINK-4123,PAYLOAD,2024-03-20 22:52:47,15.08841816,0.0001483,53.2168,60.6504,105.1983,254.9173,5.3206e-05,5.59e-06,0.0,0 STARLINK-4123,1 53539U 22101N   24080.95332724  .00000559  00000-0  53206-4 0  9999,2 53539  53.2168  60.6504 0001483 105.1983 254.9173 15.08841816 87666,6917.875,95.437,540.766,538.714,0.0
53539.0,STARLINK-4123,PAYLOAD,2024-03-21 05:14:20,15.08840029,0.0001374,53.2162,59.4605,97.3842,262.7307,1.6473e-05,-2.6e-07,0.0,0 STARLINK-4123,1 53539U 22101N   24081.21828785 -.00000026  00000-0  16473-4 0  9991,2 53539  53.2162  59.4605 0001374  97.3842 262.7307 15.08840029 87709,6917.88,95.438,540.696,538.795,0.0
53539.0,STARLINK-4123,PAYLOAD,2024-03-21 08:25:06,15.08841232,0.0001379,53.2172,58.8663,98.7425,261.3723,1.4713e-05,-5.4e-07,0.0,0 STARLINK-4123,1 53539U 22101N   24081.35076825 -.00000054  00000-0  14713-4 0  9992,2 53539  53.2172  58.8663 0001379  98.7425 261.3723 15.08841232 87720,6917.877,95.437,540.696,538.788,0.0
53539.0,STARLINK-4123,PAYLOAD,2024-03-22 08:15:52,15.0884538,0.000135,53.2175,54.406,98.2595,261.8551,0.00011152,1.488e-05,0.0,0 STARLINK-4123,1 53539U 22101N   24082.34436338  .00001488  00000-0  11152-3 0  9995,2 53539  53.2175  54.4060 0001350  98.2595 261.8551 15.08845380 87876,6917.864,95.437,540.663,538.795,0.0
53539.0,STARLINK-4123,PAYLOAD,2024-03-22 22:34:22,15.08832943,0.0001351,53.2176,51.73,94.4379,265.6767,5.7828e-05,6.32e-06,0.0,0 STARLINK-4123,1 53539U 22101N   24082.94053512  .00000632  00000-0  57828-4 0  9991,2 53539  53.2176  51.7300 0001351  94.4379 265.6767 15.08832943 87965,6917.902,95.438,540.702,538.832,0.0
53539.0,STARLINK-4123,PAYLOAD,2024-03-23 03:20:32,15.08820776,0.000127,53.2176,50.838,89.829,270.2848,-3.8762e-05,-9.04e-06,0.0,0 STARLINK-4123,1 53539U 22101N   24083.13926815 -.00000904  00000-0 -38762-4 0  9998,2 53539  53.2176  50.8380 0001270  89.8290 270.2848 15.08820776 87999,6917.939,95.439,540.683,538.926,0.0
53539.0,STARLINK-4123,PAYLOAD,2024-03-23 06:31:18,15.08822766,0.0001331,53.217,50.2424,89.2145,270.9,-0.00011943,-2.187e-05,0.0,0 STARLINK-4123,1 53539U 22101N   24083.27174154 -.00002187  00000-0 -11943-3 0  9990,2 53539  53.2170  50.2424 0001331  89.2145 270.9000 15.08822766 88019,6917.933,95.439,540.719,538.877,0.0
53539.0,STARLINK-4123,PAYLOAD,2024-03-23 20:49:46,15.08831563,0.0001238,53.2173,47.5649,91.8716,268.2418,2.4797e-05,1.07e-06,0.0,0 STARLINK-4123,1 53539U 22101N   24083.86790109  .00000107  00000-0  24797-4 0  9999,2 53539  53.2173  47.5649 0001238  91.8716 268.2418 15.08831563 88107,6917.906,95.438,540.628,538.915,0.0
53539.0,STARLINK-4123,PAYLOAD,2024-03-24 04:46:41,15.08859622,0.000112,53.2168,46.0813,84.2178,275.8941,0.00054291,8.368e-05,0.0,0 STARLINK-4123,1 53539U 22101N   24084.19908935  .00008368  00000-0  54291-3 0  9992,2 53539  53.2168  46.0813 0001120  84.2178 275.8941 15.08859622 88152,6917.82,95.436,540.46,538.911,0.0
53539.0,STARLINK-4123,PAYLOAD,2024-03-24 06:22:04,15.08863192,0.0001295,53.2167,45.784,94.4109,265.7031,0.00059601,9.216e-05,0.0,0 STARLINK-4123,1 53539U 22101N   24084.26532737  .00009216  00000-0  59601-3 0  9996,2 53539  53.2167  45.7840 0001295  94.4109 265.7031 15.08863192 88163,6917.81,95.436,540.57,538.779,0.0
53539.0,STARLINK-4123,PAYLOAD,2024-03-25 04:37:28,15.08850951,0.0001422,53.2165,41.6186,100.7199,259.3954,0.00010805,1.433e-05,0.0,0 STARLINK-4123,1 53539U 22101N   24085.19268956  .00001433  00000-0  10805-3 0  9994,2 53539  53.2165  41.6186 0001422 100.7199 259.3954 15.08850951 88309,6917.847,95.437,540.696,538.728,0.0
53539.0,STARLINK-4123,PAYLOAD,2024-03-25 20:31:21,15.08809163,0.0001731,53.2166,38.6485,99.3648,260.7539,-0.00074663,-0.00012141,0.0,0 STARLINK-4123,1 53539U 22101N   24085.85510604 -.00012141  00000-0 -74663-3 0  9999,2 53539  53.2166  38.6485 0001731  99.3648 260.7539 15.08809163 88408,6917.975,95.44,541.037,538.642,0.0
53539.0,STARLINK-4123,PAYLOAD,2024-03-26 06:03:40,15.08815468,0.0001956,53.2172,36.8644,97.4281,262.6933,-0.00027919,-4.726e-05,0.0,0 STARLINK-4123,1 53539U 22101N   24086.25255636 -.00004726  00000-0 -27919-3 0  9997,2 53539  53.2172  36.8644 0001956  97.4281 262.6933 15.08815468 88463,6917.955,95.439,541.174,538.467,0.0
53539.0,STARLINK-4123,PAYLOAD,2024-03-26 14:00:37,15.08816379,0.0001947,53.2187,35.3795,96.3727,263.7487,0.00069121,0.00010723,0.0,0 STARLINK-4123,1 53539U 22101N   24086.58376180  .00010723  00000-0  69121-3 0  9994,2 53539  53.2187  35.3795 0001947  96.3727 263.7487 15.08816379 88517,6917.953,95.439,541.165,538.471,0.0
53539.0,STARLINK-4123,PAYLOAD,2024-03-27 02:43:41,15.08845256,0.0001761,53.218,32.9966,109.8582,250.26,0.0010362,0.00016244,0.0,0 STARLINK-4123,1 53539U 22101N   24087.11367765  .00016244  00000-0  10362-2 0  9999,2 53539  53.2180  32.9966 0001761 109.8582 250.2600 15.08845256 88598,6917.864,95.437,540.948,538.511,0.0
53539.0,STARLINK-4123,PAYLOAD,2024-03-27 13:51:22,15.08878967,0.000169,53.2177,30.9155,107.8476,252.2701,0.0013947,0.00022002,0.0,0 STARLINK-4123,1 53539U 22101N   24087.57734465  .00022002  00000-0  13947-2 0  9995,2 53539  53.2177  30.9155 0001690 107.8476 252.2701 15.08878967 88660,6917.761,95.435,540.795,538.457,0.0
53539.0,STARLINK-4123,PAYLOAD,2024-03-28 02:34:27,15.08851129,0.0001537,53.2178,28.5384,102.9926,257.1238,0.0016412,0.00025936,0.0,0 STARLINK-4123,1 53539U 22101N   24088.10726284  .00025936  00000-0  16412-2 0  9994,2 53539  53.2178  28.5384 0001537 102.9926 257.1238 15.08851129 88743,6917.846,95.437,540.775,538.648,0.0
53539.0,STARLINK-4123,PAYLOAD,2024-03-28 05:45:13,15.08860094,0.0001497,53.2176,27.944,98.6513,261.4649,0.0023858,0.00037907,0.0,0 STARLINK-4123,1 53539U 22101N   24088.23974231  .00037907  00000-0  23858-2 0  9998,2 53539  53.2176  27.9440 0001497  98.6513 261.4649 15.08860094 88762,6917.819,95.436,540.72,538.648,0.0
53539.0,STARLINK-4123,PAYLOAD,2024-03-28 20:03:41,15.08856241,0.0001989,53.2171,25.2634,106.9491,253.1719,0.0012086,0.00019008,0.0,0 STARLINK-4123,1 53539U 22101N   24088.83590177  .00019008  00000-0  12086-2 0  9990,2 53539  53.2171  25.2634 0001989 106.9491 253.1719 15.08856241 88852,6917.831,95.437,541.072,538.32,0.0
53539.0,STARLINK-4123,PAYLOAD,2024-03-28 23:14:28,15.08846148,0.0001224,53.2201,24.6707,81.8783,278.2348,0.00067811,0.00010522,0.0,0 STARLINK-4123,1 53539U 22101N   24088.96838315  .00010522  00000-0  67811-3 0  9992,2 53539  53.2201  24.6707 0001224  81.8783 278.2348 15.08846148 88870,6917.862,95.437,540.573,538.88,0.0
53539.0,STARLINK-4123,PAYLOAD,2024-03-29 02:25:14,15.08848037,0.00018,53.2194,24.0742,104.0711,256.0481,-0.0001362,-2.456e-05,0.0,0 STARLINK-4123,1 53539U 22101N   24089.10086060 -.00002456  00000-0 -13620-3 0  9999,2 53539  53.2194  24.0742 0001800 104.0711 256.0481 15.08848037 88896,6917.856,95.437,540.966,538.476,0.0
53539.0,STARLINK-4123,PAYLOAD,2024-03-29 05:36:00,15.08845671,0.0001799,53.2196,23.4803,108.5747,251.5441,4.5312e-05,4.33e-06,0.0,0 STARLINK-4123,1 53539U 22101N   24089.23334092  .00000433  00000-0  45312-4 0  9999,2 53539  53.2196  23.4803 0001799 108.5747 251.5441 15.08845671 88914,6917.863,95.437,540.973,538.484,0.0
